{
    "links": {
        "self": "http://www.neowsapp.com/rest/v1/neo/3799742?api_key=iIulBulltgU6a56xZRHN4H3l9WmuAYTsLGpBGhQ2"
    },
    "id": "3799742",
    "neo_reference_id": "3799742",
    "name": "(2018 DR1)",
    "designation": "2018 DR1",
    "nasa_jpl_url": "http://ssd.jpl.nasa.gov/sbdb.cgi?sstr=3799742",
    "absolute_magnitude_h": 25.4,
    "estimated_diameter": {
        "kilometers": {
            "estimated_diameter_min": 0.022108281,
            "estimated_diameter_max": 0.0494356193
        },
        "meters": {
            "estimated_diameter_min": 22.1082810359,
            "estimated_diameter_max": 49.435619262
        },
        "miles": {
            "estimated_diameter_min": 0.0137374447,
            "estimated_diameter_max": 0.0307178602
        },
        "feet": {
            "estimated_diameter_min": 72.5337327539,
            "estimated_diameter_max": 162.1903570994
        }
    },
    "is_potentially_hazardous_asteroid": false,
    "close_approach_data": [
        {
            "close_approach_date": "1986-10-09",
            "close_approach_date_full": "1986-Oct-09 16:34",
            "epoch_date_close_approach": 529259640000,
            "relative_velocity": {
                "kilometers_per_second": "4.6747347328",
                "kilometers_per_hour": "16829.0450380416",
                "miles_per_hour": "10456.9141237765"
            },
            "miss_distance": {
                "astronomical": "0.830384923",
                "lunar": "323.019735047",
                "kilometers": "124223815.76091401",
                "miles": "77189099.807712938"
            },
            "orbiting_body": "Juptr"
        },
        {
            "close_approach_date": "2018-03-03",
            "close_approach_date_full": "2018-Mar-03 14:53",
            "epoch_date_close_approach": 1520088780000,
            "relative_velocity": {
                "kilometers_per_second": "7.3700611863",
                "kilometers_per_hour": "26532.2202707181",
                "miles_per_hour": "16486.0898676581"
            },
            "miss_distance": {
                "astronomical": "0.0724869602",
                "lunar": "28.1974275178",
                "kilometers": "10843894.848694774",
                "miles": "6738083.8098809212"
            },
            "orbiting_body": "Earth"
        },
        {
            "close_approach_date": "2057-12-26",
            "close_approach_date_full": "2057-Dec-26 18:43",
            "epoch_date_close_approach": 2776617780000,
            "relative_velocity": {
                "kilometers_per_second": "4.6100162962",
                "kilometers_per_hour": "16596.0586661484",
                "miles_per_hour": "10312.1454528632"
            },
            "miss_distance": {
                "astronomical": "0.8240788192",
                "lunar": "320.5666606688",
                "kilometers": "123280436.064435104",
                "miles": "76602910.8462642752"
            },
            "orbiting_body": "Juptr"
        },
        {
            "close_approach_date": "2129-03-02",
            "close_approach_date_full": "2129-Mar-02 06:42",
            "epoch_date_close_approach": 5022801720000,
            "relative_velocity": {
                "kilometers_per_second": "5.523474881",
                "kilometers_per_hour": "19884.5095716843",
                "miles_per_hour": "12355.4609613613"
            },
            "miss_distance": {
                "astronomical": "1.0563028494",
                "lunar": "410.9018084166",
                "kilometers": "158020656.345170778",
                "miles": "98189482.7460736164"
            },
            "orbiting_body": "Juptr"
        },
        {
            "close_approach_date": "2141-02-05",
            "close_approach_date_full": "2141-Feb-05 14:56",
            "epoch_date_close_approach": 5399362560000,
            "relative_velocity": {
                "kilometers_per_second": "5.071505629",
                "kilometers_per_hour": "18257.4202644114",
                "miles_per_hour": "11344.4509415172"
            },
            "miss_distance": {
                "astronomical": "0.9196817212",
                "lunar": "357.7561895468",
                "kilometers": "137582426.569453844",
                "miles": "85489755.6576132872"
            },
            "orbiting_body": "Juptr"
        }
    ],
    "orbital_data": {
        "orbit_id": "3",
        "orbit_determination_date": "2018-03-19 06:26:15",
        "first_observation_date": "2018-02-17",
        "last_observation_date": "2018-03-18",
        "data_arc_in_days": 29,
        "observations_used": 29,
        "orbit_uncertainty": "7",
        "minimum_orbit_intersection": ".068064",
        "jupiter_tisserand_invariant": "3.134",
        "epoch_osculation": "2459000.5",
        "eccentricity": ".5948135584852862",
        "semi_major_axis": "2.602089937238315",
        "inclination": "4.182865192657478",
        "ascending_node_longitude": "145.4605902211608",
        "orbital_period": "1533.140236660286",
        "perihelion_distance": "1.054331562170838",
        "perihelion_argument": "24.921497983473",
        "aphelion_distance": "4.149848312305792",
        "perihelion_time": "2459719.849868427856",
        "mean_anomaly": "191.0878897822509",
        "mean_motion": ".2348121792069103",
        "equinox": "J2000",
        "orbit_class": {
            "orbit_class_type": "AMO",
            "orbit_class_description": "Near-Earth asteroid orbits similar to that of 1221 Amor",
            "orbit_class_range": "1.017 AU < q (perihelion) < 1.3 AU"
        }
    },
    "is_sentry_object": false
}